1 43937U 19003F   21074.06559169  .00003052  00000-0  12301-3 0  9994
2 43937  97.1893 120.9878 0022982 351.6963   8.3892 15.25328769119870